     2.11           N: GPS NAV DATA                         RINEX VERSION / TYPE
teqc  2018Dec12     gpsops              20220224 01:04:10UTCPGM / RUN BY / DATE
Linux 2.6.32-573.12.1.x86_64|x86_64|gcc -static|Linux 64|=+ COMMENT
CHPI                                    MARKER NAME         COMMENT
41609M003                               MARKER NUMBER       COMMENT
4164613.9484 -4162456.9866 -2445028.7316                    COMMENT
                                                            COMMENT
This data is provided as a public service by NASA/JPL.      COMMENT
No warranty is expressed or implied regarding suitability   COMMENT
for use.  For further information, contact:                 COMMENT
Dave Stowers, NASA/JPL m/s 238-600                          COMMENT
4800 Oak Grove Drive, Pasadena CA 91109 USA                 COMMENT
                                                            END OF HEADER
 1 22  2 23  0  0  0.0 4.248064942658D-04-9.436007530894D-12 0.000000000000D+00
    4.800000000000D+01-5.928125000000D+01 3.899090984219D-09 1.273831170353D+00
   -2.944841980934D-06 1.142914709635D-02 9.408220648766D-06 5.153674667358D+03
    2.592000000000D+05-1.825392246246D-07-2.036607491254D+00 1.080334186554D-07
    9.868708009358D-01 2.159375000000D+02 8.820590681578D-01-7.917829809393D-09
   -5.107355599004D-11 1.000000000000D+00 2.198000000000D+03 0.000000000000D+00
    2.000000000000D+00 0.000000000000D+00 5.122274160385D-09 4.800000000000D+01
    2.520180000000D+05 4.000000000000D+00
 2 22  2 23  0  0  0.0-6.513269618154D-04-6.821210263297D-13 0.000000000000D+00
    8.600000000000D+01-5.775000000000D+01 4.279106813403D-09 1.415266110737D+00
   -3.503635525703D-06 2.063600195106D-02 8.357688784599D-06 5.153701208115D+03
    2.592000000000D+05 1.043081283569D-07-2.126038504186D+00-5.196779966354D-07
    9.652106822478D-01 2.221875000000D+02-1.439503806232D+00-8.000333245992D-09
   -2.642967233051D-11 1.000000000000D+00 2.198000000000D+03 0.000000000000D+00
    2.000000000000D+00 0.000000000000D+00-1.769512891769D-08 8.600000000000D+01
    2.539020000000D+05 4.000000000000D+00
 3 22  2 22 23 59 44.0-1.337435096502D-04-1.773514668457D-11 0.000000000000D+00
    1.300000000000D+01-1.865625000000D+01 4.403040547169D-09 1.208608686717D-01
   -9.536743164062D-07 3.884528996423D-03 7.532536983490D-06 5.153672908783D+03
    2.591840000000D+05 1.303851604462D-08-1.001274415853D+00 4.470348358154D-08
    9.725128861167D-01 2.393750000000D+02 9.550345933671D-01-8.038549123551D-09
    2.435815747217D-10 1.000000000000D+00 2.198000000000D+03 0.000000000000D+00
    2.000000000000D+00 0.000000000000D+00 1.862645149231D-09 1.300000000000D+01
    2.539680000000D+05 4.000000000000D+00
 4 22  2 23  0  0  0.0-1.879218034446D-04 2.387423592154D-12 0.000000000000D+00
    1.920000000000D+02-2.696875000000D+01 4.686623788121D-09 3.049215554787D+00
   -1.404434442520D-06 1.712160883471D-03 7.662922143936D-06 5.153644956589D+03
    2.592000000000D+05 1.862645149231D-09 7.991971352543D-02-2.980232238770D-08
    9.615160811756D-01 2.324687500000D+02-3.053407394400D+00-8.070336161895D-09
   -1.414344627416D-10 1.000000000000D+00 2.198000000000D+03 0.000000000000D+00
    2.000000000000D+00 0.000000000000D+00-4.190951585770D-09 7.040000000000D+02
    2.520180000000D+05 4.000000000000D+00
 5 22  2 23  0  0  0.0-7.237214595079D-05-1.364242052659D-12 0.000000000000D+00
    6.500000000000D+01-2.406250000000D+00 4.610192033003D-09-2.354386196173D+00
   -1.434236764908D-07 5.854785791598D-03 7.517635822296D-06 5.153667697906D+03
    2.592000000000D+05-1.862645149231D-09-1.041784109644D+00-3.539025783539D-08
    9.594954138753D-01 2.343437500000D+02 1.008592389979D+00-8.018905448170D-09
    2.971552348511D-10 1.000000000000D+00 2.198000000000D+03 0.000000000000D+00
    2.000000000000D+00 0.000000000000D+00-1.117587089539D-08 6.500000000000D+01
    2.584980000000D+05 4.000000000000D+00
 6 22  2 23  0  0  0.0 2.100653946400D-04 1.216449163621D-11 0.000000000000D+00
    3.800000000000D+01-4.625000000000D+01 3.824802175506D-09 1.590278251164D+00
   -2.428889274597D-06 2.692906884477D-03 8.419156074524D-06 5.153678411484D+03
    2.592000000000D+05 2.607703208923D-08-2.044878847629D+00-2.980232238770D-08
    9.862479986736D-01 2.265000000000D+02-9.462880621818D-01-7.752465778460D-09
   -4.285892810353D-11 1.000000000000D+00 2.198000000000D+03 0.000000000000D+00
    2.000000000000D+00 0.000000000000D+00 3.725290298462D-09 3.800000000000D+01
    2.520180000000D+05 4.000000000000D+00
 7 22  2 22 23 59 44.0 3.121420741081D-04 2.501110429876D-12 0.000000000000D+00
    6.000000000000D+00 3.293750000000D+01 4.685552314918D-09 5.998422998509D-01
    1.868233084679D-06 1.557726366445D-02 1.050904393196D-05 5.153691713333D+03
    2.591840000000D+05-2.998858690262D-07 1.098563816552D+00 1.899898052216D-07
    9.508661326483D-01 1.749062500000D+02-2.289388756151D+00-8.219628094789D-09
   -2.367955777720D-10 1.000000000000D+00 2.198000000000D+03 0.000000000000D+00
    2.000000000000D+00 0.000000000000D+00-1.117587089539D-08 6.000000000000D+00
    2.520180000000D+05 4.000000000000D+00
 8 22  2 22 23 59 44.0-5.724607035518D-05-1.477928890381D-12 0.000000000000D+00
    6.000000000000D+00-2.059375000000D+01 4.675194740627D-09-2.757599170628D+00
   -1.076608896255D-06 7.329230662435D-03 4.369765520096D-06 5.153725311279D+03
    2.591840000000D+05-1.881271600723D-07-3.116244815396D+00-1.862645149231D-08
    9.648980083779D-01 3.003750000000D+02 1.118379220412D-01-8.279630594134D-09
   -1.685784505406D-10 1.000000000000D+00 2.198000000000D+03 0.000000000000D+00
    2.000000000000D+00 0.000000000000D+00 5.122274160385D-09 6.000000000000D+00
    2.565180000000D+05 4.000000000000D+00
 9 22  2 23  0  0  0.0-3.529801033437D-04 1.705302565824D-12 0.000000000000D+00
    3.500000000000D+01-2.756250000000D+01 4.847344768509D-09-2.380569359126D+00
   -1.478940248489D-06 2.239539753646D-03 7.385388016701D-06 5.153612070084D+03
    2.592000000000D+05 2.980232238770D-08 2.692270607877D-02 3.725290298462D-09
    9.545098958542D-01 2.347500000000D+02 1.873269352251D+00-8.154625387165D-09
   -1.510777215649D-10 1.000000000000D+00 2.198000000000D+03 0.000000000000D+00
    2.000000000000D+00 0.000000000000D+00 1.396983861923D-09 3.500000000000D+01
    2.520180000000D+05 4.000000000000D+00
11 22  2 23  0  0  0.0-8.061109110713D-05 1.125499693444D-11 0.000000000000D+00
    1.390000000000D+02-4.431250000000D+01 4.348395413837D-09-2.859159845930D+00
   -2.402812242508D-06 2.697737654671D-04 8.758157491684D-06 5.153778491974D+03
    2.592000000000D+05-1.117587089539D-08-1.993011612316D+00 9.313225746155D-09
    9.619675479353D-01 2.116250000000D+02 2.833791889687D+00-8.006762085208D-09
    1.285767843106D-11 1.000000000000D+00 2.198000000000D+03 0.000000000000D+00
    1.280000000000D+02 6.300000000000D+01-8.847564458847D-09 1.390000000000D+02
    2.520180000000D+05 4.000000000000D+00
14 22  2 23  0  0  0.0-8.697900921106D-05-4.320099833421D-12 0.000000000000D+00
    2.310000000000D+02 7.478125000000D+01 4.837701509686D-09 1.785200248756D-02
    3.933906555176D-06 1.451422111131D-03 6.003305315971D-06 5.153650814056D+03
    2.592000000000D+05-1.676380634308D-08 2.180218923121D+00 3.725290298462D-09
    9.534624903970D-01 2.593750000000D+02 3.019648107870D+00-8.323203837706D-09
    1.317912039184D-10 1.000000000000D+00 2.198000000000D+03 0.000000000000D+00
    2.000000000000D+00 0.000000000000D+00-7.450580596924D-09 2.310000000000D+02
    2.528280000000D+05 4.000000000000D+00
16 22  2 22 23 59 44.0-4.728315398097D-04-4.774847184308D-12 0.000000000000D+00
    0.000000000000D+00 8.784375000000D+01 4.491258507516D-09-1.902068081067D+00
    4.246830940247D-06 1.278103434015D-02 5.232170224190D-06 5.153609149933D+03
    2.591840000000D+05 1.452863216400D-07 2.230257664441D+00-1.285225152969D-07
    9.700176203960D-01 2.783125000000D+02 7.098792395369D-01-8.102837515707D-09
    3.260850113210D-10 1.000000000000D+00 2.198000000000D+03 0.000000000000D+00
    2.000000000000D+00 0.000000000000D+00-1.024454832077D-08 0.000000000000D+00
    2.536560000000D+05 4.000000000000D+00
17 22  2 23  0  0  0.0 5.786321125925D-04 5.002220859751D-12 0.000000000000D+00
    6.400000000000D+01-2.800000000000D+01 4.243391039984D-09-2.843029721428D+00
   -1.303851604462D-06 1.358061260544D-02 4.572793841362D-06 5.153764991760D+03
    2.592000000000D+05 2.346932888031D-07-3.034275186449D+00 1.434236764908D-07
    9.800373642957D-01 2.990000000000D+02-1.496716052666D+00-7.898900449481D-09
   -1.092902666640D-10 1.000000000000D+00 2.198000000000D+03 0.000000000000D+00
    2.000000000000D+00 0.000000000000D+00-1.117587089539D-08 6.400000000000D+01
    2.591880000000D+05 4.000000000000D+00
20 22  2 23  0  0  0.0 5.165855400264D-04-1.136868377216D-13 0.000000000000D+00
    1.800000000000D+01-6.093750000000D+00 4.953777773300D-09 2.278707504103D+00
   -2.868473529816D-07 5.140263354406D-03 8.128583431244D-06 5.153752767563D+03
    2.592000000000D+05-9.313225746155D-08-1.155981494721D+00 4.470348358154D-08
    9.416726682864D-01 2.155312500000D+02 3.140635372664D+00-8.273558912652D-09
    1.942938074027D-10 1.000000000000D+00 2.198000000000D+03 0.000000000000D+00
    2.000000000000D+00 0.000000000000D+00-8.381903171539D-09 1.800000000000D+01
    2.543880000000D+05 4.000000000000D+00
27 22  2 23  0  0  0.0 1.301541924477D-04 1.512034941697D-11 0.000000000000D+00
    1.000000000000D+01-3.131250000000D+01 4.480900933224D-09-2.790227773626D+00
   -1.749023795128D-06 1.028588868212D-02 4.474073648453D-06 5.153651273727D+03
    2.592000000000D+05-2.235174179077D-08-3.096765812475D+00-1.918524503708D-07
    9.736060531144D-01 3.007187500000D+02 6.419387960133D-01-8.169983169735D-09
   -1.435774091468D-10 1.000000000000D+00 2.198000000000D+03 0.000000000000D+00
    2.000000000000D+00 0.000000000000D+00 1.396983861923D-09 1.000000000000D+01
    2.526180000000D+05 4.000000000000D+00
